NORAD_CAT_ID,OBJECT_NAME,OBJECT_TYPE,EPOCH,MEAN_MOTION,ECCENTRICITY,INCLINATION,RA_OF_ASC_NODE,ARG_OF_PERICENTER,MEAN_ANOMALY,BSTAR,MEAN_MOTION_DOT,MEAN_MOTION_DDOT,TLE_LINE0,TLE_LINE1,TLE_LINE2,SEMIMAJOR_AXIS,PERIOD,APOGEE,PERIGEE,DECAYED
53843.0,STARLINK-4769,PAYLOAD,2023-01-12 23:53:18,15.08839051,0.0001137,53.218,64.3554,120.6166,239.4938,2.3697e-05,8.9e-07,0.0,0 STARLINK-4769,1 53843U 22114AB  23012.99535000  .00000089  00000-0  23697-4 0  9990,2 53843  53.2180  64.3554 0001137 120.6166 239.4938 15.08839051 18563,6917.883000000002,95.438,540.535,538.962,0.0
53843.0,STARLINK-4769,PAYLOAD,2023-01-13 12:36:22,15.08859648,9.24e-05,53.2178,61.9786,92.4745,267.6353,7.4784e-05,9.03e-06,0.0,0 STARLINK-4769,1 53843U 22114AB  23013.52525549  .00000903  00000-0  74784-4 0  9995,2 53843  53.2178  61.9786 0000924  92.4745 267.6353 15.08859648 18649,6917.82,95.436,540.325,539.0459999999999,0.0
53843.0,STARLINK-4769,PAYLOAD,2023-01-13 20:33:19,15.08841188,0.0001075999999999,53.2177,60.4925,101.0978,259.0135,-8.7838e-05,-1.685e-05,0.0,0 STARLINK-4769,1 53843U 22114AB  23013.85647082 -.00001685  00000-0 -87838-4 0  9992,2 53843  53.2177  60.4925 0001076 101.0978 259.0135 15.08841188 19230,6917.877,95.437,540.486,538.997,0.0
53843.0,STARLINK-4769,PAYLOAD,2023-01-14 09:16:24,15.08838235,0.0001341999999999,53.217,58.1124,105.2608,254.8532,2.9547e-05,1.82e-06,0.0,0 STARLINK-4769,1 53843U 22114AB  23014.38639195  .00000182  00000-0  29547-4 0  9999,2 53843  53.2170  58.1124 0001342 105.2608 254.8532 15.08838235 18771,6917.886,95.438,540.679,538.822,0.0
53843.0,STARLINK-4769,PAYLOAD,2023-01-15 02:45:39,15.08830162,0.0001368,53.2177,54.8422,102.3945,257.72,2.2057e-05,6.3e-07,0.0,0 STARLINK-4769,1 53843U 22114AB  23015.11503869  .00000063  00000-0  22057-4 0  9996,2 53843  53.2177  54.8422 0001368 102.3945 257.7200 15.08830162 18889,6917.91,95.438,540.722,538.8290000000001,0.0
53843.0,STARLINK-4769,PAYLOAD,2023-01-15 12:17:57,15.0884889,0.0001527,53.2178,53.0586,102.5548,257.5615,-4.618e-05,-1.023e-05,0.0,0 STARLINK-4769,1 53843U 22114AB  23015.51246995 -.00001023  00000-0 -46180-4 0  9996,2 53843  53.2178  53.0586 0001527 102.5548 257.5615 15.08848890 18942,6917.853,95.437,540.775,538.6619999999999,0.0
53843.0,STARLINK-4769,PAYLOAD,2023-01-16 12:08:42,15.08861924,0.0001349,53.2183,48.597,110.2792,249.8345,0.00023689,3.486e-05,0.0,0 STARLINK-4769,1 53843U 22114AB  23016.50605017  .00003486  00000-0  23689-3 0  9991,2 53843  53.2183  48.5970 0001349 110.2792 249.8345 15.08861924 19097,6917.813,95.436,540.612,538.745,0.0
53843.0,STARLINK-4769,PAYLOAD,2023-01-16 18:30:17,15.0883633,0.0002254999999999,53.2176,47.4065,83.1196,277.0053,3.0684e-06,-2.39e-06,0.0,0 STARLINK-4769,1 53843U 22114AB  23016.77103602 -.00000239  00000-0  30684-5 0  9992,2 53843  53.2176  47.4065 0002255  83.1196 277.0053 15.08836330 19132,6917.892,95.438,541.317,538.197,0.0
53843.0,STARLINK-4769,PAYLOAD,2023-01-17 00:51:50,15.08828748,0.0002359,53.2179,46.2204,93.235,266.8912,-7.6079e-05,-1.499e-05,0.0,0 STARLINK-4769,1 53843U 22114AB  23017.03600588 -.00001499  00000-0 -76079-4 0  9994,2 53843  53.2179  46.2204 0002359  93.2350 266.8912 15.08828748 19174,6917.915,95.438,541.4119999999999,538.148,0.0
53843.0,STARLINK-4769,PAYLOAD,2023-01-17 08:48:47,15.08818318,0.0001551999999999,53.2217,44.7328,93.9198,266.1971,-0.00014824,-2.645e-05,0.0,0 STARLINK-4769,1 53843U 22114AB  23017.36721649 -.00002645  00000-0 -14824-3 0  9995,2 53843  53.2217  44.7328 0001552  93.9198 266.1971 15.08818318 19224,6917.946999999999,95.439,540.885,538.738,0.0
53843.0,STARLINK-4769,PAYLOAD,2023-01-17 18:21:05,15.08829266,0.0001197,53.2198,42.9454,89.431,270.682,-8.8338e-05,-1.693e-05,0.0,0 STARLINK-4769,1 53843U 22114AB  23017.76465171 -.00001693  00000-0 -88338-4 0  9998,2 53843  53.2198  42.9454 0001197  89.4310 270.6820 15.08829266 19826,6917.9130000000005,95.438,540.606,538.95,0.0
53843.0,STARLINK-4769,PAYLOAD,2023-01-18 00:42:38,15.08827636,0.0001185,53.2199,41.7567,91.9925,268.1202,-8.3615e-05,-1.618e-05,0.0,0 STARLINK-4769,1 53843U 22114AB  23018.02961411 -.00001618  00000-0 -83615-4 0  9996,2 53843  53.2199  41.7567 0001185  91.9925 268.1202 15.08827636 19326,6917.918000000001,95.438,540.6030000000001,538.9630000000001,0.0
53843.0,STARLINK-4769,PAYLOAD,2023-01-18 08:39:32,15.08854212,0.0001381,53.219,40.2706,80.3226,279.7922,-4.0497e-05,-9.33e-06,0.0,0 STARLINK-4769,1 53843U 22114AB  23018.36079687 -.00000933  00000-0 -40497-4 0  9998,2 53843  53.2190  40.2706 0001381  80.3226 279.7922 15.08854212 19372,6917.837,95.437,540.6569999999999,538.747,0.0
53843.0,STARLINK-4769,PAYLOAD,2023-01-18 18:11:50,15.08859402,0.0001419999999999,53.2192,38.4867,90.8244,269.2911,1.0825e-05,-1.16e-06,0.0,0 STARLINK-4769,1 53843U 22114AB  23018.75822873 -.00000116  00000-0  10825-4 0  9998,2 53843  53.2192  38.4867 0001420  90.8244 269.2911 15.08859402 19975,6917.821,95.436,540.668,538.7040000000001,0.0
53843.0,STARLINK-4769,PAYLOAD,2023-01-19 10:05:42,15.08844518,0.0001764,53.2185,35.5109,90.9725,269.1469,0.00034741,5.246e-05,0.0,0 STARLINK-4769,1 53843U 22114AB  23019.42063019  .00005246  00000-0  34741-3 0  9992,2 53843  53.2185  35.5109 0001764  90.9725 269.1469 15.08844518 19531,6917.866999999999,95.437,540.952,538.511,0.0
53843.0,STARLINK-4769,PAYLOAD,2023-01-19 18:02:38,15.08839064,6.86e-05,53.2186,34.0263,88.5341,271.5729,5.1465e-05,5.32e-06,0.0,0 STARLINK-4769,1 53843U 22114AB  23019.75183954  .00000532  00000-0  51465-4 0  9995,2 53843  53.2186  34.0263 0000686  88.5341 271.5729 15.08839064 19587,6917.883000000001,95.438,540.2230000000001,539.274,0.0
53843.0,STARLINK-4769,PAYLOAD,2023-01-20 08:21:07,15.08843624,0.0001431,53.2183,31.3532,101.4581,258.6572,-7.5778e-05,-1.494e-05,0.0,0 STARLINK-4769,1 53843U 22114AB  23020.34800354 -.00001494  00000-0 -75778-4 0  9995,2 53843  53.2183  31.3532 0001431 101.4581 258.6572 15.08843624 20214,6917.869000000001,95.437,540.724,538.744,0.0
53843.0,STARLINK-4769,PAYLOAD,2023-01-21 06:36:31,15.08843885,0.000135,53.2179,27.1872,99.7809,260.3336,-3.0592e-05,-7.75e-06,0.0,0 STARLINK-4769,1 53843U 22114AB  23021.27536065 -.00000775  00000-0 -30592-4 0  9999,2 53843  53.2179  27.1872 0001350  99.7809 260.3336 15.08843885 19812,6917.869000000001,95.437,540.6669999999999,538.8,0.0
53843.0,STARLINK-4769,PAYLOAD,2023-01-21 09:47:16,15.08856348,0.0001433,53.2195,26.5907,102.3992,257.716,-3.843e-05,-9e-06,0.0,0 STARLINK-4769,1 53843U 22114AB  23021.40783241 -.00000900  00000-0 -38430-4 0  9993,2 53843  53.2195  26.5907 0001433 102.3992 257.7160 15.08856348 19833,6917.83,95.437,540.687,538.7040000000001,0.0
53843.0,STARLINK-4769,PAYLOAD,2023-01-22 06:27:17,15.08845666,0.0001802,53.219,22.725,105.4648,254.6543,0.00015382,2.161e-05,0.0,0 STARLINK-4769,1 53843U 22114AB  23022.26895353  .00002161  00000-0  15382-3 0  9995,2 53843  53.2190  22.7250 0001802 105.4648 254.6543 15.08845666 19965,6917.863,95.437,540.975,538.481,0.0
53843.0,STARLINK-4769,PAYLOAD,2023-01-22 23:56:33,15.0883104,0.0001806,53.2172,19.455,101.3445,258.775,1.149e-05,-1.05e-06,0.0,0 STARLINK-4769,1 53843U 22114AB  23022.99761021 -.00000105  00000-0  11490-4 0  9993,2 53843  53.2172  19.4550 0001806 101.3445 258.7750 15.08831040 20075,6917.908,95.438,541.0219999999999,538.523,0.0
53843.0,STARLINK-4769,PAYLOAD,2023-01-24 04:33:29,15.0884876,0.0001492,53.2185,14.1011,105.5612,254.5545,8.7473e-06,-1.49e-06,0.0,0 STARLINK-4769,1 53843U 22114AB  23024.18992227 -.00000149  00000-0  87473-5 0  9993,2 53843  53.2185  14.1011 0001492 105.5612 254.5545 15.08848760 20259,6917.854,95.437,540.751,538.686,0.0
53843.0,STARLINK-4769,PAYLOAD,2023-01-25 05:59:40,15.08832623,0.0001109,53.2189,9.3518,85.9004,274.2115,0.0001565999999999,2.205e-05,0.0,0 STARLINK-4769,1 53843U 22114AB  23025.24977313  .00002205  00000-0  15660-3 0  9991,2 53843  53.2189   9.3518 0001109  85.9004 274.2115 15.08832623 20413,6917.903,95.438,540.535,539.001,0.0
53843.0,STARLINK-4769,PAYLOAD,2023-01-25 09:10:26,15.08841177,0.0001355,53.2193,8.7507,109.0485,251.0654,0.00016394,2.322e-05,0.0,0 STARLINK-4769,1 53843U 22114AB  23025.38224708  .00002322  00000-0  16394-3 0  9994,2 53843  53.2193   8.7507 0001355 109.0485 251.0654 15.08841177 20430,6917.877,95.437,540.679,538.804,0.0
53843.0,STARLINK-4769,PAYLOAD,2023-01-25 15:31:58,15.08839462,0.0001182,53.2191,7.5591,86.4763,273.6365,0.00012002,1.623e-05,0.0,0 STARLINK-4769,1 53843U 22114AB  23025.64720972  .00001623  00000-0  12002-3 0  9992,2 53843  53.2191   7.5591 0001182  86.4763 273.6365 15.08839462 21011,6917.882,95.438,540.565,538.929,0.0
53843.0,STARLINK-4769,PAYLOAD,2023-01-26 07:25:50,15.08847783,0.0001171999999999,53.2186,4.5919,96.8126,263.3,7.2157e-05,8.61e-06,0.0,0 STARLINK-4769,1 53843U 22114AB  23026.30960828  .00000861  00000-0  72157-4 0  9993,2 53843  53.2186   4.5919 0001172  96.8126 263.3000 15.08847783 21111,6917.857,95.437,540.5319999999999,538.911,0.0
53843.0,STARLINK-4769,PAYLOAD,2023-01-27 05:41:14,15.08840653,0.0001291999999999,53.22,0.4254,81.7353,278.3786,7.5397e-05,9.12e-06,0.0,0 STARLINK-4769,1 53843U 22114AB  23027.23697425  .00000912  00000-0  75397-4 0  9992,2 53843  53.2200   0.4254 0001292  81.7353 278.3786 15.08840653 20714,6917.878000000001,95.438,540.637,538.85,0.0
53843.0,STARLINK-4769,PAYLOAD,2023-01-27 07:16:37,15.08844666,0.0001264999999999,53.2199,0.1256,86.399,273.7147,0.00010821,1.435e-05,0.0,0 STARLINK-4769,1 53843U 22114AB  23027.30321031  .00001435  00000-0  10821-3 0  9998,2 53843  53.2199   0.1256 0001265  86.3990 273.7147 15.08844666 21267,6917.866,95.437,540.606,538.856,0.0
53843.0,STARLINK-4769,PAYLOAD,2023-01-28 07:07:24,15.08844408,0.0001333,53.2201,355.665,83.0141,277.1003,7.0923e-05,8.41e-06,0.0,0 STARLINK-4769,1 53843U 22114AB  23028.29681299  .00000841  00000-0  70923-4 0  9992,2 53843  53.2201 355.6650 0001333  83.0141 277.1003 15.08844408 20874,6917.867,95.437,540.654,538.81,0.0
